[{"OBJECT_NAME":"STARLINK-2046","OBJECT_ID":"2021-005F","EPOCH":"2026-03-09T07:14:34.390752","MEAN_MOTION":15.30240663,"ECCENTRICITY":0.00011823,"INCLINATION":53.16,"RA_OF_ASC_NODE":25.7636,"ARG_OF_PERICENTER":90.9763,"MEAN_ANOMALY":269.1373,"EPHEMERIS_TYPE":0,"CLASSIFICATION_TYPE":"U","NORAD_CAT_ID":47354,"ELEMENT_SET_NO":999,"REV_AT_EPOCH":28351,"BSTAR":0.00052507363,"MEAN_MOTION_DOT":0.00015243,"MEAN_MOTION_DDOT":0},{"OBJECT_NAME":"TRANSPORTER-10 OBJECT AG","OBJECT_ID":"2024-043AG","EPOCH":"2026-03-09T22:12:45.387648","MEAN_MOTION":15.30759727,"ECCENTRICITY":0.00093005,"INCLINATION":97.5471,"RA_OF_ASC_NODE":205.7101,"ARG_OF_PERICENTER":226.5958,"MEAN_ANOMALY":133.4509,"EPHEMERIS_TYPE":0,"CLASSIFICATION_TYPE":"U","NORAD_CAT_ID":59128,"ELEMENT_SET_NO":999,"REV_AT_EPOCH":11192,"BSTAR":0.00032170115,"MEAN_MOTION_DOT":9.498e-5,"MEAN_MOTION_DDOT":0}]
